TIANMU-1 22             
1 58663U 23208D   26140.29231586  .00005266  00000+0  18050-3 0  9997
2 58663  97.4475 256.4234 0005191  86.6630 273.5205 15.30616541133066
TIANMU-1 15             
1 58700U 24004A   26140.31146359  .00003878  00000+0  15040-3 0  9993
2 58700  97.4673 326.5026 0008603  89.0556 271.1668 15.26698431131520
TIANMU-1 16             
1 58701U 24004B   26140.29569432  .00003688  00000+0  14437-3 0  9990
2 58701  97.4620 325.7552 0007600  91.9306 268.2803 15.26425588131528
TIANMU-1 17             
1 58702U 24004C   26140.28114529  .00003780  00000+0  14792-3 0  9990
2 58702  97.4647 326.2151 0007141  96.0922 264.1131 15.26426564131512
TIANMU-1 18             
1 58703U 24004D   26140.26227292  .00003766  00000+0  14627-3 0  9992
2 58703  97.4665 326.4343 0005718  92.3023 267.8870 15.26688740131513
INSAT-3DS               
1 58990U 24033A   26140.11023817 -.00000159  00000+0  00000+0 0  9993
2 58990   0.0446 254.7894 0001266 155.8453 308.8858  1.00269963 46783
METEOR-M2 4             
1 59051U 24039A   26140.25761622 -.00000001  00000+0  19075-4 0  9999
2 59051  98.6996  99.9096 0005952 247.9908 112.0638 14.22426300115294
GOES 19                 
1 60133U 24119A   26140.21814420 -.00000252  00000+0  00000+0 0  9993
2 60133   0.0429 112.7884 0000307  22.4603 105.9755  1.00271060  6687
FENGYUN 3H              
1 65815U 25219A   26140.27731227  .00000028  00000+0  33824-4 0  9991
2 65815  98.6760  81.5912 0001526  98.7649 261.3701 14.19914786 33428
