OBJECT_NAME,OBJECT_ID,EPOCH,MEAN_MOTION,ECCENTRICITY,INCLINATION,RA_OF_ASC_NODE,ARG_OF_PERICENTER,MEAN_ANOMALY,EPHEMERIS_TYPE,CLASSIFICATION_TYPE,NORAD_CAT_ID,ELEMENT_SET_NO,REV_AT_EPOCH,BSTAR,MEAN_MOTION_DOT,MEAN_MOTION_DDOT
TIANMU-1 22,2023-208D,2026-05-20T07:00:56.090304,15.30616541,.00051913,97.4475,256.4234,86.6630,273.5205,0,U,58663,999,13306,.18049712E-3,.5266E-4,0
TIANMU-1 15,2024-004A,2026-05-20T07:28:30.454176,15.26698431,.00086031,97.4673,326.5026,89.0556,271.1668,0,U,58700,999,13152,.15040412E-3,.3878E-4,0
TIANMU-1 16,2024-004B,2026-05-20T07:05:47.989248,15.26425588,.00076003,97.4620,325.7552,91.9306,268.2803,0,U,58701,999,13152,.14436631E-3,.3688E-4,0
TIANMU-1 17,2024-004C,2026-05-20T06:44:50.953056,15.26426564,.00071414,97.4647,326.2151,96.0922,264.1131,0,U,58702,999,13151,.14792274E-3,.378E-4,0
TIANMU-1 18,2024-004D,2026-05-20T06:17:40.380288,15.26688740,.00057188,97.4665,326.4343,92.3023,267.8870,0,U,58703,999,13151,.14626607E-3,.3766E-4,0
INSAT-3DS,2024-033A,2026-05-20T02:38:44.577888,1.00269963,.00012661,0.0446,254.7894,155.8453,308.8858,0,U,58990,999,4678,0,-.159E-5,0
METEOR-M2 4,2024-039A,2026-05-20T06:10:58.041408,14.22426300,.0005952,98.6996,99.9096,247.9908,112.0638,0,U,59051,999,11529,.19074862E-4,-.1E-7,0
GOES 19,2024-119A,2026-05-20T05:14:07.658880,1.00271060,.00003075,0.0429,112.7884,22.4603,105.9755,0,U,60133,999,668,0,-.252E-5,0
FENGYUN 3H,2025-219A,2026-05-20T06:39:19.780128,14.19914786,.00015266,98.6760,81.5912,98.7649,261.3701,0,U,65815,999,3342,.3382381E-4,.28E-6,0
